ONEWEB-0291             
1 49081U 21075G   25100.47898012  .00000079  00000+0  17148-3 0  9993
2 49081  87.9001  92.0329 0001795  95.0365 265.0971 13.17651204176626
ONEWEB-0293             
1 49082U 21075H   25100.50428617  .00000101  00000+0  22618-3 0  9992
2 49082  87.9007  92.0569 0001811  87.3879 272.7460 13.17652107176656
ONEWEB-0294             
1 49083U 21075J   25100.45480358  .00000509  00000+0  13785-2 0  9993
2 49083  87.8825  76.7589 0001387  88.5215 271.6072 13.12444026177810
ONEWEB-0295             
1 49084U 21075K   25100.50345979  .00000122  00000+0  28058-3 0  9990
2 49084  87.9021  92.0412 0001883 100.0408 260.0936 13.17650197176612
ONEWEB-0296             
1 49085U 21075L   25100.43534002 -.00000078  00000+0 -25282-3 0  9998
2 49085  87.8829  76.7697 0001624 104.2733 255.8576 13.12444161177814
ONEWEB-0297             
1 49086U 21075M   25100.46616419  .00000465  00000+0  12564-2 0  9991
2 49086  87.8835  76.7930 0001979  87.0970 273.0385 13.12442998178420
ONEWEB-0298             
1 49087U 21075N   25100.50780514  .00000072  00000+0  15283-3 0  9991
2 49087  87.9008  92.0537 0002150  92.2216 267.9162 13.17646437176647
ONEWEB-0299             
1 49088U 21075P   25100.50936578  .00000096  00000+0  21502-3 0  9992
2 49088  87.9003  92.0098 0002097  93.0421 267.0950 13.17647645176628
