<?xml version="1.0" encoding="UTF-8"?>
<ndm xmlns:xsi="http://www.w3.org/2001/XMLSchema-instance" xsi:noNamespaceSchemaLocation="https://sanaregistry.org/r/ndmxml_unqualified/ndmxml-2.0.0-master-2.0.xsd">
<omm id="CCSDS_OMM_VERS" version="2.0">
<header><CREATION_DATE/><ORIGINATOR/></header><body><segment><metadata><OBJECT_NAME>ONEWEB-0291</OBJECT_NAME><OBJECT_ID>2021-075G</OBJECT_ID><CENTER_NAME>EARTH</CENTER_NAME><REF_FRAME>TEME</REF_FRAME><TIME_SYSTEM>UTC</TIME_SYSTEM><MEAN_ELEMENT_THEORY>SGP4</MEAN_ELEMENT_THEORY></metadata><data><meanElements><EPOCH>2025-04-10T11:29:43.882368</EPOCH><MEAN_MOTION>13.17651204</MEAN_MOTION><ECCENTRICITY>.0001795</ECCENTRICITY><INCLINATION>87.9001</INCLINATION><RA_OF_ASC_NODE>92.0329</RA_OF_ASC_NODE><ARG_OF_PERICENTER>95.0365</ARG_OF_PERICENTER><MEAN_ANOMALY>265.0971</MEAN_ANOMALY></meanElements><tleParameters><EPHEMERIS_TYPE>0</EPHEMERIS_TYPE><CLASSIFICATION_TYPE>U</CLASSIFICATION_TYPE><NORAD_CAT_ID>49081</NORAD_CAT_ID><ELEMENT_SET_NO>999</ELEMENT_SET_NO><REV_AT_EPOCH>17662</REV_AT_EPOCH><BSTAR>.17148E-3</BSTAR><MEAN_MOTION_DOT>.79E-6</MEAN_MOTION_DOT><MEAN_MOTION_DDOT>0</MEAN_MOTION_DDOT></tleParameters></data></segment></body></omm>
<omm id="CCSDS_OMM_VERS" version="2.0">
<header><CREATION_DATE/><ORIGINATOR/></header><body><segment><metadata><OBJECT_NAME>ONEWEB-0293</OBJECT_NAME><OBJECT_ID>2021-075H</OBJECT_ID><CENTER_NAME>EARTH</CENTER_NAME><REF_FRAME>TEME</REF_FRAME><TIME_SYSTEM>UTC</TIME_SYSTEM><MEAN_ELEMENT_THEORY>SGP4</MEAN_ELEMENT_THEORY></metadata><data><meanElements><EPOCH>2025-04-10T12:06:10.325088</EPOCH><MEAN_MOTION>13.17652107</MEAN_MOTION><ECCENTRICITY>.0001811</ECCENTRICITY><INCLINATION>87.9007</INCLINATION><RA_OF_ASC_NODE>92.0569</RA_OF_ASC_NODE><ARG_OF_PERICENTER>87.3879</ARG_OF_PERICENTER><MEAN_ANOMALY>272.7460</MEAN_ANOMALY></meanElements><tleParameters><EPHEMERIS_TYPE>0</EPHEMERIS_TYPE><CLASSIFICATION_TYPE>U</CLASSIFICATION_TYPE><NORAD_CAT_ID>49082</NORAD_CAT_ID><ELEMENT_SET_NO>999</ELEMENT_SET_NO><REV_AT_EPOCH>17665</REV_AT_EPOCH><BSTAR>.22618E-3</BSTAR><MEAN_MOTION_DOT>.101E-5</MEAN_MOTION_DOT><MEAN_MOTION_DDOT>0</MEAN_MOTION_DDOT></tleParameters></data></segment></body></omm>
<omm id="CCSDS_OMM_VERS" version="2.0">
<header><CREATION_DATE/><ORIGINATOR/></header><body><segment><metadata><OBJECT_NAME>ONEWEB-0294</OBJECT_NAME><OBJECT_ID>2021-075J</OBJECT_ID><CENTER_NAME>EARTH</CENTER_NAME><REF_FRAME>TEME</REF_FRAME><TIME_SYSTEM>UTC</TIME_SYSTEM><MEAN_ELEMENT_THEORY>SGP4</MEAN_ELEMENT_THEORY></metadata><data><meanElements><EPOCH>2025-04-10T10:54:55.029312</EPOCH><MEAN_MOTION>13.12444026</MEAN_MOTION><ECCENTRICITY>.0001387</ECCENTRICITY><INCLINATION>87.8825</INCLINATION><RA_OF_ASC_NODE>76.7589</RA_OF_ASC_NODE><ARG_OF_PERICENTER>88.5215</ARG_OF_PERICENTER><MEAN_ANOMALY>271.6072</MEAN_ANOMALY></meanElements><tleParameters><EPHEMERIS_TYPE>0</EPHEMERIS_TYPE><CLASSIFICATION_TYPE>U</CLASSIFICATION_TYPE><NORAD_CAT_ID>49083</NORAD_CAT_ID><ELEMENT_SET_NO>999</ELEMENT_SET_NO><REV_AT_EPOCH>17781</REV_AT_EPOCH><BSTAR>.13785E-2</BSTAR><MEAN_MOTION_DOT>.509E-5</MEAN_MOTION_DOT><MEAN_MOTION_DDOT>0</MEAN_MOTION_DDOT></tleParameters></data></segment></body></omm>
<omm id="CCSDS_OMM_VERS" version="2.0">
<header><CREATION_DATE/><ORIGINATOR/></header><body><segment><metadata><OBJECT_NAME>ONEWEB-0295</OBJECT_NAME><OBJECT_ID>2021-075K</OBJECT_ID><CENTER_NAME>EARTH</CENTER_NAME><REF_FRAME>TEME</REF_FRAME><TIME_SYSTEM>UTC</TIME_SYSTEM><MEAN_ELEMENT_THEORY>SGP4</MEAN_ELEMENT_THEORY></metadata><data><meanElements><EPOCH>2025-04-10T12:04:58.925856</EPOCH><MEAN_MOTION>13.17650197</MEAN_MOTION><ECCENTRICITY>.0001883</ECCENTRICITY><INCLINATION>87.9021</INCLINATION><RA_OF_ASC_NODE>92.0412</RA_OF_ASC_NODE><ARG_OF_PERICENTER>100.0408</ARG_OF_PERICENTER><MEAN_ANOMALY>260.0936</MEAN_ANOMALY></meanElements><tleParameters><EPHEMERIS_TYPE>0</EPHEMERIS_TYPE><CLASSIFICATION_TYPE>U</CLASSIFICATION_TYPE><NORAD_CAT_ID>49084</NORAD_CAT_ID><ELEMENT_SET_NO>999</ELEMENT_SET_NO><REV_AT_EPOCH>17661</REV_AT_EPOCH><BSTAR>.28058E-3</BSTAR><MEAN_MOTION_DOT>.122E-5</MEAN_MOTION_DOT><MEAN_MOTION_DDOT>0</MEAN_MOTION_DDOT></tleParameters></data></segment></body></omm>
<omm id="CCSDS_OMM_VERS" version="2.0">
<header><CREATION_DATE/><ORIGINATOR/></header><body><segment><metadata><OBJECT_NAME>ONEWEB-0296</OBJECT_NAME><OBJECT_ID>2021-075L</OBJECT_ID><CENTER_NAME>EARTH</CENTER_NAME><REF_FRAME>TEME</REF_FRAME><TIME_SYSTEM>UTC</TIME_SYSTEM><MEAN_ELEMENT_THEORY>SGP4</MEAN_ELEMENT_THEORY></metadata><data><meanElements><EPOCH>2025-04-10T10:26:53.377728</EPOCH><MEAN_MOTION>13.12444161</MEAN_MOTION><ECCENTRICITY>.0001624</ECCENTRICITY><INCLINATION>87.8829</INCLINATION><RA_OF_ASC_NODE>76.7697</RA_OF_ASC_NODE><ARG_OF_PERICENTER>104.2733</ARG_OF_PERICENTER><MEAN_ANOMALY>255.8576</MEAN_ANOMALY></meanElements><tleParameters><EPHEMERIS_TYPE>0</EPHEMERIS_TYPE><CLASSIFICATION_TYPE>U</CLASSIFICATION_TYPE><NORAD_CAT_ID>49085</NORAD_CAT_ID><ELEMENT_SET_NO>999</ELEMENT_SET_NO><REV_AT_EPOCH>17781</REV_AT_EPOCH><BSTAR>-.25282E-3</BSTAR><MEAN_MOTION_DOT>-.78E-6</MEAN_MOTION_DOT><MEAN_MOTION_DDOT>0</MEAN_MOTION_DDOT></tleParameters></data></segment></body></omm>
<omm id="CCSDS_OMM_VERS" version="2.0">
<header><CREATION_DATE/><ORIGINATOR/></header><body><segment><metadata><OBJECT_NAME>ONEWEB-0297</OBJECT_NAME><OBJECT_ID>2021-075M</OBJECT_ID><CENTER_NAME>EARTH</CENTER_NAME><REF_FRAME>TEME</REF_FRAME><TIME_SYSTEM>UTC</TIME_SYSTEM><MEAN_ELEMENT_THEORY>SGP4</MEAN_ELEMENT_THEORY></metadata><data><meanElements><EPOCH>2025-04-10T11:11:16.586016</EPOCH><MEAN_MOTION>13.12442998</MEAN_MOTION><ECCENTRICITY>.0001979</ECCENTRICITY><INCLINATION>87.8835</INCLINATION><RA_OF_ASC_NODE>76.7930</RA_OF_ASC_NODE><ARG_OF_PERICENTER>87.0970</ARG_OF_PERICENTER><MEAN_ANOMALY>273.0385</MEAN_ANOMALY></meanElements><tleParameters><EPHEMERIS_TYPE>0</EPHEMERIS_TYPE><CLASSIFICATION_TYPE>U</CLASSIFICATION_TYPE><NORAD_CAT_ID>49086</NORAD_CAT_ID><ELEMENT_SET_NO>999</ELEMENT_SET_NO><REV_AT_EPOCH>17842</REV_AT_EPOCH><BSTAR>.12564E-2</BSTAR><MEAN_MOTION_DOT>.465E-5</MEAN_MOTION_DOT><MEAN_MOTION_DDOT>0</MEAN_MOTION_DDOT></tleParameters></data></segment></body></omm>
<omm id="CCSDS_OMM_VERS" version="2.0">
<header><CREATION_DATE/><ORIGINATOR/></header><body><segment><metadata><OBJECT_NAME>ONEWEB-0298</OBJECT_NAME><OBJECT_ID>2021-075N</OBJECT_ID><CENTER_NAME>EARTH</CENTER_NAME><REF_FRAME>TEME</REF_FRAME><TIME_SYSTEM>UTC</TIME_SYSTEM><MEAN_ELEMENT_THEORY>SGP4</MEAN_ELEMENT_THEORY></metadata><data><meanElements><EPOCH>2025-04-10T12:11:14.364096</EPOCH><MEAN_MOTION>13.17646437</MEAN_MOTION><ECCENTRICITY>.000215</ECCENTRICITY><INCLINATION>87.9008</INCLINATION><RA_OF_ASC_NODE>92.0537</RA_OF_ASC_NODE><ARG_OF_PERICENTER>92.2216</ARG_OF_PERICENTER><MEAN_ANOMALY>267.9162</MEAN_ANOMALY></meanElements><tleParameters><EPHEMERIS_TYPE>0</EPHEMERIS_TYPE><CLASSIFICATION_TYPE>U</CLASSIFICATION_TYPE><NORAD_CAT_ID>49087</NORAD_CAT_ID><ELEMENT_SET_NO>999</ELEMENT_SET_NO><REV_AT_EPOCH>17664</REV_AT_EPOCH><BSTAR>.15283E-3</BSTAR><MEAN_MOTION_DOT>.72E-6</MEAN_MOTION_DOT><MEAN_MOTION_DDOT>0</MEAN_MOTION_DDOT></tleParameters></data></segment></body></omm>
<omm id="CCSDS_OMM_VERS" version="2.0">
<header><CREATION_DATE/><ORIGINATOR/></header><body><segment><metadata><OBJECT_NAME>ONEWEB-0299</OBJECT_NAME><OBJECT_ID>2021-075P</OBJECT_ID><CENTER_NAME>EARTH</CENTER_NAME><REF_FRAME>TEME</REF_FRAME><TIME_SYSTEM>UTC</TIME_SYSTEM><MEAN_ELEMENT_THEORY>SGP4</MEAN_ELEMENT_THEORY></metadata><data><meanElements><EPOCH>2025-04-10T12:13:29.203392</EPOCH><MEAN_MOTION>13.17647645</MEAN_MOTION><ECCENTRICITY>.0002097</ECCENTRICITY><INCLINATION>87.9003</INCLINATION><RA_OF_ASC_NODE>92.0098</RA_OF_ASC_NODE><ARG_OF_PERICENTER>93.0421</ARG_OF_PERICENTER><MEAN_ANOMALY>267.0950</MEAN_ANOMALY></meanElements><tleParameters><EPHEMERIS_TYPE>0</EPHEMERIS_TYPE><CLASSIFICATION_TYPE>U</CLASSIFICATION_TYPE><NORAD_CAT_ID>49088</NORAD_CAT_ID><ELEMENT_SET_NO>999</ELEMENT_SET_NO><REV_AT_EPOCH>17662</REV_AT_EPOCH><BSTAR>.21502E-3</BSTAR><MEAN_MOTION_DOT>.96E-6</MEAN_MOTION_DOT><MEAN_MOTION_DDOT>0</MEAN_MOTION_DDOT></tleParameters></data></segment></body></omm>

</ndm>
